[{"OBJECT_NAME":"SEEDS II (CO-66)","OBJECT_ID":"2008-021J","EPOCH":"2026-03-09T22:06:22.421376","MEAN_MOTION":15.29097236,"ECCENTRICITY":0.00014475,"INCLINATION":97.7519,"RA_OF_ASC_NODE":62.3611,"ARG_OF_PERICENTER":359.2618,"MEAN_ANOMALY":0.8619,"EPHEMERIS_TYPE":0,"CLASSIFICATION_TYPE":"U","NORAD_CAT_ID":32791,"ELEMENT_SET_NO":999,"REV_AT_EPOCH":97210,"BSTAR":0.00084213052,"MEAN_MOTION_DOT":0.00023758,"MEAN_MOTION_DDOT":0},{"OBJECT_NAME":"STARLINK-35411","OBJECT_ID":"2025-268D","EPOCH":"2026-03-09T04:41:57.674688","MEAN_MOTION":15.27576721,"ECCENTRICITY":0.00011588,"INCLINATION":42.9996,"RA_OF_ASC_NODE":349.8996,"ARG_OF_PERICENTER":286.5987,"MEAN_ANOMALY":73.4737,"EPHEMERIS_TYPE":0,"CLASSIFICATION_TYPE":"U","NORAD_CAT_ID":66560,"ELEMENT_SET_NO":999,"REV_AT_EPOCH":1788,"BSTAR":0.001097542,"MEAN_MOTION_DOT":0.0003006,"MEAN_MOTION_DDOT":0}]
